CCSDS_OMM_VERS = 2.0
CREATION_DATE  = 
ORIGINATOR     = 

OBJECT_NAME    = COSMOS 2058
OBJECT_ID      = 1990-010A
CENTER_NAME    = EARTH
REF_FRAME      = TEME
TIME_SYSTEM    = UTC
MEAN_ELEMENT_THEORY = SGP/SGP4

EPOCH          = 2026-03-12T10:17:36.698208
MEAN_MOTION    = 15.11349429
ECCENTRICITY   = .0008931
INCLINATION    = 82.4668
RA_OF_ASC_NODE = 44.7287
ARG_OF_PERICENTER = 335.5228
MEAN_ANOMALY   = 24.5576

EPHEMERIS_TYPE = 0
CLASSIFICATION_TYPE = U
NORAD_CAT_ID   = 20465
ELEMENT_SET_NO = 999
REV_AT_EPOCH   = 94265
BSTAR          = .28118E-3
MEAN_MOTION_DOT = .4772E-4
MEAN_MOTION_DDOT = 0

CCSDS_OMM_VERS = 2.0
CREATION_DATE  = 
ORIGINATOR     = 

OBJECT_NAME    = SL-14 R/B
OBJECT_ID      = 1990-010B
CENTER_NAME    = EARTH
REF_FRAME      = TEME
TIME_SYSTEM    = UTC
MEAN_ELEMENT_THEORY = SGP/SGP4

EPOCH          = 2026-03-12T14:05:25.279296
MEAN_MOTION    = 14.83571789
ECCENTRICITY   = .001842
INCLINATION    = 82.4986
RA_OF_ASC_NODE = 264.6662
ARG_OF_PERICENTER = 292.0668
MEAN_ANOMALY   = 67.8591

EPHEMERIS_TYPE = 0
CLASSIFICATION_TYPE = U
NORAD_CAT_ID   = 20466
ELEMENT_SET_NO = 999
REV_AT_EPOCH   = 92891
BSTAR          = .61353E-4
MEAN_MOTION_DOT = .53E-5
MEAN_MOTION_DDOT = 0

CCSDS_OMM_VERS = 2.0
CREATION_DATE  = 
ORIGINATOR     = 

OBJECT_NAME    = SL-14 R/B
OBJECT_ID      = 1990-018B
CENTER_NAME    = EARTH
REF_FRAME      = TEME
TIME_SYSTEM    = UTC
MEAN_ELEMENT_THEORY = SGP/SGP4

EPOCH          = 2026-03-12T11:20:41.744832
MEAN_MOTION    = 14.82148561
ECCENTRICITY   = .0017645
INCLINATION    = 82.5208
RA_OF_ASC_NODE = 220.4881
ARG_OF_PERICENTER = 83.6362
MEAN_ANOMALY   = 276.6861

EPHEMERIS_TYPE = 0
CLASSIFICATION_TYPE = U
NORAD_CAT_ID   = 20511
ELEMENT_SET_NO = 999
REV_AT_EPOCH   = 92299
BSTAR          = .79303E-4
MEAN_MOTION_DOT = .656E-5
MEAN_MOTION_DDOT = 0

CCSDS_OMM_VERS = 2.0
CREATION_DATE  = 
ORIGINATOR     = 

OBJECT_NAME    = HST
OBJECT_ID      = 1990-037B
CENTER_NAME    = EARTH
REF_FRAME      = TEME
TIME_SYSTEM    = UTC
MEAN_ELEMENT_THEORY = SGP/SGP4

EPOCH          = 2026-03-12T05:26:07.751040
MEAN_MOTION    = 15.29528665
ECCENTRICITY   = .0001818
INCLINATION    = 28.4723
RA_OF_ASC_NODE = 22.6938
ARG_OF_PERICENTER = 150.2149
MEAN_ANOMALY   = 209.8550

EPHEMERIS_TYPE = 0
CLASSIFICATION_TYPE = U
NORAD_CAT_ID   = 20580
ELEMENT_SET_NO = 999
REV_AT_EPOCH   = 77370
BSTAR          = .28559E-3
MEAN_MOTION_DOT = .8646E-4
MEAN_MOTION_DDOT = 0

CCSDS_OMM_VERS = 2.0
CREATION_DATE  = 
ORIGINATOR     = 

OBJECT_NAME    = SL-16 R/B
OBJECT_ID      = 1990-046B
CENTER_NAME    = EARTH
REF_FRAME      = TEME
TIME_SYSTEM    = UTC
MEAN_ELEMENT_THEORY = SGP/SGP4

EPOCH          = 2026-03-12T00:43:13.787616
MEAN_MOTION    = 14.15011596
ECCENTRICITY   = .00162464
INCLINATION    = 70.9984
RA_OF_ASC_NODE = 292.9996
ARG_OF_PERICENTER = 296.4241
MEAN_ANOMALY   = 63.5214

EPHEMERIS_TYPE = 0
CLASSIFICATION_TYPE = U
NORAD_CAT_ID   = 20625
ELEMENT_SET_NO = 999
REV_AT_EPOCH   = 84872
BSTAR          = -.69834214E-4
MEAN_MOTION_DOT = -.183E-5
MEAN_MOTION_DDOT = 0

CCSDS_OMM_VERS = 2.0
CREATION_DATE  = 
ORIGINATOR     = 

OBJECT_NAME    = COSMOS 2084
OBJECT_ID      = 1990-055A
CENTER_NAME    = EARTH
REF_FRAME      = TEME
TIME_SYSTEM    = UTC
MEAN_ELEMENT_THEORY = SGP/SGP4

EPOCH          = 2026-03-12T17:03:15.032160
MEAN_MOTION    = 15.05671013
ECCENTRICITY   = .0016622
INCLINATION    = 62.7917
RA_OF_ASC_NODE = 325.2753
ARG_OF_PERICENTER = 190.7601
MEAN_ANOMALY   = 169.3146

EPHEMERIS_TYPE = 0
CLASSIFICATION_TYPE = U
NORAD_CAT_ID   = 20663
ELEMENT_SET_NO = 999
REV_AT_EPOCH   = 93677
BSTAR          = .20683E-3
MEAN_MOTION_DOT = .2809E-4
MEAN_MOTION_DDOT = 0

CCSDS_OMM_VERS = 2.0
CREATION_DATE  = 
ORIGINATOR     = 

OBJECT_NAME    = SL-6 R/B(2)
OBJECT_ID      = 1990-055D
CENTER_NAME    = EARTH
REF_FRAME      = TEME
TIME_SYSTEM    = UTC
MEAN_ELEMENT_THEORY = SGP/SGP4

EPOCH          = 2026-03-12T15:08:26.431008
MEAN_MOTION    = 15.03611178
ECCENTRICITY   = .0025267
INCLINATION    = 62.7824
RA_OF_ASC_NODE = 243.8482
ARG_OF_PERICENTER = 347.7413
MEAN_ANOMALY   = 12.3068

EPHEMERIS_TYPE = 0
CLASSIFICATION_TYPE = U
NORAD_CAT_ID   = 20666
ELEMENT_SET_NO = 999
REV_AT_EPOCH   = 93863
BSTAR          = .20229E-3
MEAN_MOTION_DOT = .2597E-4
MEAN_MOTION_DDOT = 0

CCSDS_OMM_VERS = 2.0
CREATION_DATE  = 
ORIGINATOR     = 

OBJECT_NAME    = SL-8 R/B
OBJECT_ID      = 1990-078B
CENTER_NAME    = EARTH
REF_FRAME      = TEME
TIME_SYSTEM    = UTC
MEAN_ELEMENT_THEORY = SGP/SGP4

EPOCH          = 2026-03-12T12:46:16.412160
MEAN_MOTION    = 14.89163958
ECCENTRICITY   = .0361621
INCLINATION    = 82.9003
RA_OF_ASC_NODE = 248.7539
ARG_OF_PERICENTER = 4.4419
MEAN_ANOMALY   = 355.9858

EPHEMERIS_TYPE = 0
CLASSIFICATION_TYPE = U
NORAD_CAT_ID   = 20775
ELEMENT_SET_NO = 999
REV_AT_EPOCH   = 80972
BSTAR          = .46878E-3
MEAN_MOTION_DOT = .15911E-3
MEAN_MOTION_DDOT = 0

CCSDS_OMM_VERS = 2.0
CREATION_DATE  = 
ORIGINATOR     = 

OBJECT_NAME    = SL-8 R/B
OBJECT_ID      = 1991-006B
CENTER_NAME    = EARTH
REF_FRAME      = TEME
TIME_SYSTEM    = UTC
MEAN_ELEMENT_THEORY = SGP/SGP4

EPOCH          = 2026-03-12T16:42:28.491840
MEAN_MOTION    = 13.77494756
ECCENTRICITY   = .0022903
INCLINATION    = 82.9465
RA_OF_ASC_NODE = 167.8109
ARG_OF_PERICENTER = 30.1183
MEAN_ANOMALY   = 135.5379

EPHEMERIS_TYPE = 0
CLASSIFICATION_TYPE = U
NORAD_CAT_ID   = 21088
ELEMENT_SET_NO = 999
REV_AT_EPOCH   = 76448
BSTAR          = .69141E-4
MEAN_MOTION_DOT = .84E-6
MEAN_MOTION_DDOT = 0

CCSDS_OMM_VERS = 2.0
CREATION_DATE  = 
ORIGINATOR     = 

OBJECT_NAME    = OKEAN-3
OBJECT_ID      = 1991-039A
CENTER_NAME    = EARTH
REF_FRAME      = TEME
TIME_SYSTEM    = UTC
MEAN_ELEMENT_THEORY = SGP/SGP4

EPOCH          = 2026-03-12T16:06:39.400704
MEAN_MOTION    = 15.04830412
ECCENTRICITY   = .0013688
INCLINATION    = 82.5198
RA_OF_ASC_NODE = 333.9552
ARG_OF_PERICENTER = 326.6607
MEAN_ANOMALY   = 33.3756

EPHEMERIS_TYPE = 0
CLASSIFICATION_TYPE = U
NORAD_CAT_ID   = 21397
ELEMENT_SET_NO = 999
REV_AT_EPOCH   = 86548
BSTAR          = .28068E-3
MEAN_MOTION_DOT = .3998E-4
MEAN_MOTION_DDOT = 0

CCSDS_OMM_VERS = 2.0
CREATION_DATE  = 
ORIGINATOR     = 

OBJECT_NAME    = COSMOS 2151
OBJECT_ID      = 1991-042A
CENTER_NAME    = EARTH
REF_FRAME      = TEME
TIME_SYSTEM    = UTC
MEAN_ELEMENT_THEORY = SGP/SGP4

EPOCH          = 2026-03-12T16:26:24.305856
MEAN_MOTION    = 15.00117035
ECCENTRICITY   = .001388
INCLINATION    = 82.4930
RA_OF_ASC_NODE = 80.7859
ARG_OF_PERICENTER = 54.6153
MEAN_ANOMALY   = 305.6366

EPHEMERIS_TYPE = 0
CLASSIFICATION_TYPE = U
NORAD_CAT_ID   = 21422
ELEMENT_SET_NO = 999
REV_AT_EPOCH   = 86364
BSTAR          = .19335E-3
MEAN_MOTION_DOT = .2442E-4
MEAN_MOTION_DDOT = 0

CCSDS_OMM_VERS = 2.0
CREATION_DATE  = 
ORIGINATOR     = 

OBJECT_NAME    = SL-14 R/B
OBJECT_ID      = 1991-042B
CENTER_NAME    = EARTH
REF_FRAME      = TEME
TIME_SYSTEM    = UTC
MEAN_ELEMENT_THEORY = SGP/SGP4

EPOCH          = 2026-03-12T11:00:37.842048
MEAN_MOTION    = 14.81833129
ECCENTRICITY   = .0015934
INCLINATION    = 82.4930
RA_OF_ASC_NODE = 217.5857
ARG_OF_PERICENTER = 228.8675
MEAN_ANOMALY   = 131.1164

EPHEMERIS_TYPE = 0
CLASSIFICATION_TYPE = U
NORAD_CAT_ID   = 21423
ELEMENT_SET_NO = 999
REV_AT_EPOCH   = 85348
BSTAR          = .77993E-4
MEAN_MOTION_DOT = .64E-5
MEAN_MOTION_DDOT = 0

