COSMOS 2058             
1 20465U 90010A   26071.42889697  .00004772  00000+0  28118-3 0  9998
2 20465  82.4668  44.7287 0008931 335.5228  24.5576 15.11349429942658
SL-14 R/B               
1 20466U 90010B   26071.58709814  .00000530  00000+0  61353-4 0  9995
2 20466  82.4986 264.6662 0018420 292.0668  67.8591 14.83571789928915
SL-14 R/B               
1 20511U 90018B   26071.47270538  .00000656  00000+0  79303-4 0  9991
2 20511  82.5208 220.4881 0017645  83.6362 276.6861 14.82148561922999
HST                     
1 20580U 90037B   26071.22647860  .00008646  00000+0  28559-3 0  9990
2 20580  28.4723  22.6938 0001818 150.2149 209.8550 15.29528665773705
SL-16 R/B               
1 20625U 90046B   26071.03002069 -.00000183  00000+0 -69834-4 0  9997
2 20625  70.9984 292.9996 0016246 296.4241  63.5214 14.15011596848720
COSMOS 2084             
1 20663U 90055A   26071.71059065  .00002809  00000+0  20683-3 0  9995
2 20663  62.7917 325.2753 0016622 190.7601 169.3146 15.05671013936770
SL-6 R/B(2)             
1 20666U 90055D   26071.63086147  .00002597  00000+0  20229-3 0  9990
2 20666  62.7824 243.8482 0025267 347.7413  12.3068 15.03611178938635
SL-8 R/B                
1 20775U 90078B   26071.53213440  .00015911  00000+0  46878-3 0  9995
2 20775  82.9003 248.7539 0361621   4.4419 355.9858 14.89163958809727
SL-8 R/B                
1 21088U 91006B   26071.69616310  .00000084  00000+0  69141-4 0  9999
2 21088  82.9465 167.8109 0022903  30.1183 135.5379 13.77494756764484
OKEAN-3                 
1 21397U 91039A   26071.67128936  .00003998  00000+0  28068-3 0  9997
2 21397  82.5198 333.9552 0013688 326.6607  33.3756 15.04830412865489
COSMOS 2151             
1 21422U 91042A   26071.68500354  .00002442  00000+0  19335-3 0  9999
2 21422  82.4930  80.7859 0013880  54.6153 305.6366 15.00117035863649
SL-14 R/B               
1 21423U 91042B   26071.45877132  .00000640  00000+0  77993-4 0  9999
2 21423  82.4930 217.5857 0015934 228.8675 131.1164 14.81833129853480
